{
  "type": "FeatureCollection",
  "features": [
    {
      "type": "Feature",
      "properties": {
        "norad_id": 33844,
        "name": "COSMOS 2251 DEB",
        "group": "cosmos-2251-debris",
        "lat": -59.055049290017614,
        "lon": -89.721680082762,
        "alt_km": 817.3192465399952,
        "timestamp": "2025-12-07T18:50:17.107676+00:00",
        "meta_object_name": "COSMOS 2251 DEB",
        "meta_object_id": "1993-036CM",
        "meta_epoch": "2025-12-07T04:25:45.158880",
        "meta_mean_motion": 14.33697608,
        "meta_eccentricity": 0.00470911,
        "meta_inclination": 74.0674,
        "meta_ra_of_asc_node": 62.9201,
        "meta_arg_of_pericenter": 86.6404,
        "meta_mean_anomaly": 298.7675,
        "meta_ephemeris_type": 0,
        "meta_classification_type": "U",
        "meta_norad_cat_id": 33844,
        "meta_element_set_no": 999,
        "meta_rev_at_epoch": 87646,
        "meta_bstar": 0.00068132036,
        "meta_mean_motion_dot": 1.889e-05,
        "meta_mean_motion_ddot": 0,
        "tle_line1": "1 33844U 93036CM  25341.18455045  .00001889  00000+0  68132-3 0  9998",
        "tle_line2": "2 33844  74.0674  62.9201 0047091  86.6404 298.7675 14.33697608876463"
      },
      "geometry": {
        "type": "Point",
        "coordinates": [
          -89.721680082762,
          -59.055049290017614
        ]
      }
    },
    {
      "type": "Feature",
      "properties": {
        "norad_id": 33848,
        "name": "COSMOS 2251 DEB",
        "group": "cosmos-2251-debris",
        "lat": -54.77299344836614,
        "lon": -149.21572462025057,
        "alt_km": 780.9219714660412,
        "timestamp": "2025-12-07T18:50:17.107686+00:00",
        "meta_object_name": "COSMOS 2251 DEB",
        "meta_object_id": "1993-036CR",
        "meta_epoch": "2025-12-07T07:49:25.181760",
        "meta_mean_motion": 14.44007788,
        "meta_eccentricity": 0.00409184,
        "meta_inclination": 74.0317,
        "meta_ra_of_asc_node": 7.7154,
        "meta_arg_of_pericenter": 65.338,
        "meta_mean_anomaly": 307.9489,
        "meta_ephemeris_type": 0,
        "meta_classification_type": "U",
        "meta_norad_cat_id": 33848,
        "meta_element_set_no": 999,
        "meta_rev_at_epoch": 87753,
        "meta_bstar": 0.0015251752,
        "meta_mean_motion_dot": 5.245e-05,
        "meta_mean_motion_ddot": 0,
        "tle_line1": "1 33848U 93036CR  25341.32598590  .00005245  00000+0  15252-2 0  9995",
        "tle_line2": "2 33848  74.0317   7.7154 0040918  65.3380 307.9489 14.44007788877534"
      },
      "geometry": {
        "type": "Point",
        "coordinates": [
          -149.21572462025057,
          -54.77299344836614
        ]
      }
    },
    {
      "type": "Feature",
      "properties": {
        "norad_id": 33892,
        "name": "COSMOS 2251 DEB",
        "group": "cosmos-2251-debris",
        "lat": 7.645569740562068,
        "lon": -71.13936397186922,
        "alt_km": 743.9620126658647,
        "timestamp": "2025-12-07T18:50:17.107696+00:00",
        "meta_object_name": "COSMOS 2251 DEB",
        "meta_object_id": "1993-036CV",
        "meta_epoch": "2025-12-07T03:40:13.360224",
        "meta_mean_motion": 14.23302467,
        "meta_eccentricity": 0.01133555,
        "meta_inclination": 73.8031,
        "meta_ra_of_asc_node": 112.2491,
        "meta_arg_of_pericenter": 144.5286,
        "meta_mean_anomaly": 29.8006,
        "meta_ephemeris_type": 0,
        "meta_classification_type": "U",
        "meta_norad_cat_id": 33892,
        "meta_element_set_no": 999,
        "meta_rev_at_epoch": 86875,
        "meta_bstar": 0.0016661608,
        "meta_mean_motion_dot": 4.008e-05,
        "meta_mean_motion_ddot": 0,
        "tle_line1": "1 33892U 93036CV  25341.15293241  .00004008  00000+0  16662-2 0  9992",
        "tle_line2": "2 33892  73.8031 112.2491 0113355 144.5286  29.8006 14.23302467868758"
      },
      "geometry": {
        "type": "Point",
        "coordinates": [
          -71.13936397186922,
          7.645569740562068
        ]
      }
    },
    {
      "type": "Feature",
      "properties": {
        "norad_id": 33894,
        "name": "COSMOS 2251 DEB",
        "group": "cosmos-2251-debris",
        "lat": 70.73697387842459,
        "lon": 120.27438456759027,
        "alt_km": 1609.661845117691,
        "timestamp": "2025-12-07T18:50:17.107706+00:00",
        "meta_object_name": "COSMOS 2251 DEB",
        "meta_object_id": "1993-036CX",
        "meta_epoch": "2025-12-06T18:40:27.809760",
        "meta_mean_motion": 13.21275371,
        "meta_eccentricity": 0.05795546,
        "meta_inclination": 73.7665,
        "meta_ra_of_asc_node": 358.3052,
        "meta_arg_of_pericenter": 278.4832,
        "meta_mean_anomaly": 75.1013,
        "meta_ephemeris_type": 0,
        "meta_classification_type": "U",
        "meta_norad_cat_id": 33894,
        "meta_element_set_no": 999,
        "meta_rev_at_epoch": 80629,
        "meta_bstar": 0.0028206325,
        "meta_mean_motion_dot": 2.787e-05,
        "meta_mean_motion_ddot": 0,
        "tle_line1": "1 33894U 93036CX  25340.77809965  .00002787  00000+0  28206-2 0  9996",
        "tle_line2": "2 33894  73.7665 358.3052 0579554 278.4832  75.1013 13.21275371806292"
      },
      "geometry": {
        "type": "Point",
        "coordinates": [
          120.27438456759027,
          70.73697387842459
        ]
      }
    },
    {
      "type": "Feature",
      "properties": {
        "norad_id": 33896,
        "name": "COSMOS 2251 DEB",
        "group": "cosmos-2251-debris",
        "lat": -41.64594798931351,
        "lon": 150.66212492941156,
        "alt_km": 752.7843589351696,
        "timestamp": "2025-12-07T18:50:17.107717+00:00",
        "meta_object_name": "COSMOS 2251 DEB",
        "meta_object_id": "1993-036CZ",
        "meta_epoch": "2025-12-06T21:37:21.883872",
        "meta_mean_motion": 14.19016603,
        "meta_eccentricity": 0.0126226,
        "meta_inclination": 73.766,
        "meta_ra_of_asc_node": 167.2828,
        "meta_arg_of_pericenter": 343.8986,
        "meta_mean_anomaly": 139.0232,
        "meta_ephemeris_type": 0,
        "meta_classification_type": "U",
        "meta_norad_cat_id": 33896,
        "meta_element_set_no": 999,
        "meta_rev_at_epoch": 86657,
        "meta_bstar": 0.00081217221,
        "meta_mean_motion_dot": 1.808e-05,
        "meta_mean_motion_ddot": 0,
        "tle_line1": "1 33896U 93036CZ  25340.90094773  .00001808  00000+0  81217-3 0  9991",
        "tle_line2": "2 33896  73.7660 167.2828 0126226 343.8986 139.0232 14.19016603866577"
      },
      "geometry": {
        "type": "Point",
        "coordinates": [
          150.66212492941156,
          -41.64594798931351
        ]
      }
    },
    {
      "type": "Feature",
      "properties": {
        "norad_id": 33899,
        "name": "COSMOS 2251 DEB",
        "group": "cosmos-2251-debris",
        "lat": -50.700349315271154,
        "lon": 74.74331873791274,
        "alt_km": 730.1580791486449,
        "timestamp": "2025-12-07T18:50:17.107727+00:00",
        "meta_object_name": "COSMOS 2251 DEB",
        "meta_object_id": "1993-036DC",
        "meta_epoch": "2025-12-07T07:41:02.236992",
        "meta_mean_motion": 14.61102629,
        "meta_eccentricity": 0.00573315,
        "meta_inclination": 74.0544,
        "meta_ra_of_asc_node": 96.0758,
        "meta_arg_of_pericenter": 160.2742,
        "meta_mean_anomaly": 222.2487,
        "meta_ephemeris_type": 0,
        "meta_classification_type": "U",
        "meta_norad_cat_id": 33899,
        "meta_element_set_no": 999,
        "meta_rev_at_epoch": 88760,
        "meta_bstar": 0.0017937982,
        "meta_mean_motion_dot": 9.008e-05,
        "meta_mean_motion_ddot": 0,
        "tle_line1": "1 33899U 93036DC  25341.32016478  .00009008  00000+0  17938-2 0  9995",
        "tle_line2": "2 33899  74.0544  96.0758 0057331 160.2742 222.2487 14.61102629887602"
      },
      "geometry": {
        "type": "Point",
        "coordinates": [
          74.74331873791274,
          -50.700349315271154
        ]
      }
    },
    {
      "type": "Feature",
      "properties": {
        "norad_id": 33900,
        "name": "COSMOS 2251 DEB",
        "group": "cosmos-2251-debris",
        "lat": 29.858971138642673,
        "lon": 18.77316416297343,
        "alt_km": 718.7788529711988,
        "timestamp": "2025-12-07T18:50:17.107736+00:00",
        "meta_object_name": "COSMOS 2251 DEB",
        "meta_object_id": "1993-036DD",
        "meta_epoch": "2025-12-07T02:22:24.350880",
        "meta_mean_motion": 14.58316586,
        "meta_eccentricity": 0.00471528,
        "meta_inclination": 74.0194,
        "meta_ra_of_asc_node": 10.6107,
        "meta_arg_of_pericenter": 164.2836,
        "meta_mean_anomaly": 227.2779,
        "meta_ephemeris_type": 0,
        "meta_classification_type": "U",
        "meta_norad_cat_id": 33900,
        "meta_element_set_no": 999,
        "meta_rev_at_epoch": 88954,
        "meta_bstar": 0.00064452794,
        "meta_mean_motion_dot": 2.999e-05,
        "meta_mean_motion_ddot": 0,
        "tle_line1": "1 33900U 93036DD  25341.09889295  .00002999  00000+0  64453-3 0  9994",
        "tle_line2": "2 33900  74.0194  10.6107 0047152 164.2836 227.2779 14.58316586889543"
      },
      "geometry": {
        "type": "Point",
        "coordinates": [
          18.77316416297343,
          29.858971138642673
        ]
      }
    }
  ]
}